ARIANE 40 R/B           
1 20443U 90005H   26048.17457253  .00000306  00000+0  11089-3 0  9991
2 20443  98.3129 109.4426 0008898 265.1465  94.8708 14.39856604889855
DELTA 2 R/B(1)          
1 20453U 90008B   26048.07953304  .00074977  00000+0  96417-3 0  9995
2 20453  35.6050 309.8085 0090077  66.1799 294.8349 15.53084967922920
COSMOS 2058             
1 20465U 90010A   26048.51924214  .00004148  00000+0  24555-3 0  9995
2 20465  82.4654  67.2989 0011096  51.8196 308.4032 15.11130412939196
SL-14 R/B               
1 20466U 90010B   26048.18302487  .00000440  00000+0  50448-4 0  9993
2 20466  82.5014 286.6537 0020143  11.9550 348.2139 14.83551001925440
SL-14 R/B               
1 20511U 90018B   26048.58614836  .00000409  00000+0  48320-4 0  9991
2 20511  82.5179 241.8835 0016919 153.6921 206.5157 14.82122056919609
HST                     
1 20580U 90037B   26048.38665745  .00008081  00000+0  26964-3 0  9994
2 20580  28.4679 178.4659 0001160 240.9363 119.1116 15.29146763770208
SL-16 R/B               
1 20625U 90046B   26048.26728872  .00000310  00000+0  18446-3 0  9995
2 20625  71.0015 340.8028 0015277 328.1534  31.8663 14.15012001845508
COSMOS 2084             
1 20663U 90055A   26048.39815919  .00003046  00000+0  22375-3 0  9995
2 20663  62.7899  44.7769 0020183 185.5143 174.5739 15.05514009933267
SL-6 R/B(2)             
1 20666U 90055D   26048.15376800  .00002870  00000+0  22303-3 0  9998
2 20666  62.7846 323.6811 0021679 341.6533  18.3782 15.03491534935101
SL-8 R/B                
1 20775U 90078B   26048.61328881  .00014367  00000+0  42159-3 0  9996
2 20775  82.9004 269.3573 0366112  81.2958 282.9540 14.88376399806319
SL-8 R/B                
1 21088U 91006B   26048.50539300  .00000016  00000+0  68745-6 0  9992
2 21088  82.9447 185.0508 0023776  92.1779 335.9878 13.77492333761292
OKEAN-3                 
1 21397U 91039A   26048.33026940  .00004927  00000+0  34774-3 0  9990
2 21397  82.5199 356.5604 0015845  44.2077 316.0412 15.04645083861978
COSMOS 2151             
1 21422U 91042A   26048.60493497  .00001542  00000+0  12156-3 0  9998
2 21422  82.4950 103.0530 0013854 124.0165 236.2377 15.00025424860189
SL-14 R/B               
1 21423U 91042B   26048.56739056  .00000368  00000+0  43553-4 0  9999
2 21423  82.4897 239.0551 0015885 310.8243  49.1593 14.81808421850095
ERS-1                   
1 21574U 91050A   26048.53903313  .00000290  00000+0  10750-3 0  9997
2 21574  98.7893  66.2667 0030872 261.7759  97.9926 14.39432581812839
ARIANE 40 R/B           
1 21610U 91050F   26048.56856003  .00000270  00000+0  93354-4 0  9994
2 21610  98.2057 101.5559 0004191 124.9392 235.2193 14.42878194816091
INTERCOSMOS 25          
1 21819U 91086A   26048.26535578  .00001118  00000+0  21430-3 0  9999
2 21819  82.6084 322.3503 1486953 160.9300 205.4174 12.11942510494213
SL-8 R/B                
1 21876U 92008B   26048.57985917  .00000065  00000+0  50822-4 0  9995
2 21876  82.9250 282.7399 0034375 188.7363 235.6787 13.75970120706657
SL-8 R/B                
1 21938U 92020B   26048.47295468  .00000095  00000+0  82635-4 0  9992
2 21938  82.9339 168.7667 0028708 356.9499  75.3491 13.75546753698356
USA 81                  
1 21949U 92023A   26048.33015346  .00000205  00000+0  68575-4 0  9997
2 21949  85.0116 143.1818 0002764  95.8944 264.2563 14.32360533 91875
COSMOS 2219             
1 22219U 92076A   26048.43130847  .00000220  00000+0  13990-3 0  9998
2 22219  71.0582  60.4189 0019929 234.3629 125.5638 14.14078645715517
SL-16 R/B               
1 22220U 92076B   26048.57496799 -.00000167  00000+0 -59631-4 0  9991
2 22220  70.9975 230.7439 0011181 133.2721 284.5105 14.16854815718987
COSMOS 2221             
1 22236U 92080A   26048.17217342  .00002134  00000+0  18720-3 0  9991
2 22236  82.5044 298.7330 0012797 261.9986  97.9784 14.96120543777728
SL-16 R/B               
1 22285U 92093B   26048.38650598  .00000310  00000+0  18321-3 0  9997
2 22285  71.0208  46.8874 0005490 315.8444  44.2240 14.15444178710286
COSMOS 2228             
1 22286U 92094A   26048.53616867  .00002041  00000+0  17419-3 0  9997
2 22286  82.5147 256.6102 0018406  14.3601 345.8141 14.97091996773047
SL-16 R/B               
1 22566U 93016B   26048.56621944 -.00000215  00000+0 -85964-4 0  9992
2 22566  71.0045 257.4483 0010554 341.6395  18.4345 14.15300604699327
COSMOS 2242             
1 22626U 93024A   26048.64356327  .00001719  00000+0  14885-3 0  9998
2 22626  82.5177 285.8921 0016925  17.9118 342.2697 14.96463849777395
SL-16 R/B               
1 22803U 93059B   26048.43181220 -.00000143  00000+0 -47130-4 0  9990
2 22803  70.9891  53.8463 0019328 244.4621 115.4505 14.17227592676668
ARIANE 40 R/B           
1 22830U 93061H   26048.16833381  .00000228  00000+0  99279-4 0  9998
2 22830  98.4961 117.4564 0010262 351.2636   8.8368 14.32849831691168
COSMOS 2278             
1 23087U 94023A   26048.58283780  .00000157  00000+0  10644-3 0  9999
2 23087  71.0506 217.1627 0007026  53.1171 307.0594 14.14364683641964
SL-16 R/B               
1 23088U 94023B   26048.56773458  .00000355  00000+0  20811-3 0  9991
2 23088  70.9993 113.1485 0004782 304.8036  55.2636 14.15008051643249
SL-16 R/B               
1 23343U 94074B   26048.58026777  .00000446  00000+0  66403-4 0  9997
2 23343  97.7137  80.2099 0005155 291.5182 183.8543 14.79383038684278
SL-16 R/B               
1 23405U 94077B   26048.41586142  .00000249  00000+0  15192-3 0  9997
2 23405  70.9830  35.1396 0003950 230.6415 129.4358 14.15562468613361
ARIANE 40+ R/B          
1 23561U 95021B   26048.17000627  .00000336  00000+0  12116-3 0  9992
2 23561  98.4542 119.9263 0006597 193.5673 193.9105 14.39757111616294
SL-16 R/B               
1 23705U 95058B   26048.56317342 -.00000080  00000+0 -16623-4 0  9996
2 23705  71.0198 222.5085 0011576 160.2194 199.9381 14.15495899565003
SL-16 R/B               
1 24298U 96051B   26048.55697897  .00000070  00000+0  64764-4 0  9999
2 24298  70.7572 217.8509 0016845 176.6641 183.4594 14.12409884518809
ORBVIEW 2 (SEASTAR)     
1 24883U 97037A   26048.41327759  .00000291  00000+0  11740-3 0  9996
2 24883  98.8529 212.1917 0003144 112.4078 247.7440 14.35478709505563
SL-16 R/B               
1 25400U 98043G   26048.45435352  .00000061  00000+0  44635-4 0  9998
2 25400  98.8221   1.6787 0010952  74.5953 285.6435 14.26044825436105
SL-16 R/B               
1 25407U 98045B   26048.58401993  .00000254  00000+0  15246-3 0  9994
2 25407  71.0090 223.8541 0005750  43.9509 316.2071 14.16189522424255
ISS (ZARYA)             
1 25544U 98067A   26048.57003830  .00008013  00000+0  15504-3 0  9995
2 25544  51.6323 171.8070 0011023 108.2943 251.9246 15.48664181553219
CZ-4B R/B               
1 25732U 99025C   26048.57068554  .00000043  00000+0  41364-4 0  9992
2 25732  98.6668  93.3248 0037815  44.1954  75.9655 14.18261215385312
OKEAN-O                 
1 25860U 99039A   26048.17092887  .00000811  00000+0  11336-3 0  9999
2 25860  97.9488 108.2665 0001800  79.8265 280.3150 14.80301618431359
SL-16 R/B               
1 25861U 99039B   26048.57535636  .00000520  00000+0  72755-4 0  9998
2 25861  98.0011 107.6974 0013963 327.4131  32.6219 14.81701981433889
DELTA 2 R/B             
1 25876U 99041E   26048.33641695  .00002035  00000+0  36489-3 0  9990
2 25876  51.7658  22.5610 0502212 288.3168  66.3766 14.11761236360157
HELIOS 1B               
1 25977U 99064A   26048.33377356  .00001940  00000+0  21988-3 0  9999
2 25977  98.1720 309.9769 0002340 101.8743 258.2735 14.87611261682235
TERRA                   
1 25994U 99068A   26048.60129444  .00000410  00000+0  92687-4 0  9991
2 25994  97.9637 102.7991 0001270 213.7381 319.0948 14.60991991392148
SL-16 R/B               
1 26070U 00006B   26048.52353347 -.00000133  00000+0 -43154-4 0  9992
2 26070  71.0023 140.2399 0017991 218.4953 141.4888 14.15818424345708
TITAN 4B R/B            
1 26474U 00047B   26048.55274549  .00002870  00000+0  18480-3 0  9995
2 26474  67.9884  97.1284 0037241  59.9048 300.5785 15.09380366389874
ENVISAT                 
1 27386U 02009A   26048.45737367  .00000123  00000+0  53711-4 0  9995
2 27386  98.3695   2.5410 0001374  86.8580  23.2564 14.39029088256267
IDEFIX & ARIANE 42P R/B 
1 27422U 02021B   26048.42872564  .00000287  00000+0  12576-3 0  9990
2 27422  98.5852 347.2796 0010664 245.7547 114.2522 14.31011159241128
AQUA                    
1 27424U 02022A   26048.57211876  .00000962  00000+0  20211-3 0  9997
2 27424  98.4138  15.5767 0001193  47.8065  63.7174 14.61924813265795
CZ-4B R/B               
1 27432U 02024C   26048.57932326  .00000042  00000+0  44517-4 0  9993
2 27432  98.8886 102.0830 0051188  80.5282  79.2939 14.14543820226392
MIDORI II (ADEOS-II)    
1 27597U 02056A   26048.50220768  .00000307  00000+0  13869-3 0  9992
2 27597  98.7734   6.8451 0002147  70.2359 289.9054 14.29269681207413
H-2A R/B                
1 27601U 02056E   26048.47836745  .00000285  00000+0  11479-3 0  9992
2 27601  98.3167   9.6181 0069286 221.1363 248.2322 14.33746352211214
CZ-4B R/B               
1 28059U 03049C   26048.57827567  .00000407  00000+0  10519-3 0  9996
2 28059  98.6858  42.6975 0047094 293.8152  65.8111 14.54998015183670
CZ-2C R/B               
1 28222U 04012C   26048.57339981  .00045947  00000+0  52061-3 0  9993
2 28222  97.7281 111.9956 0015122  28.3678 331.8399 15.62133700201130
SL-16 R/B               
1 28353U 04021B   26048.09181256  .00000344  00000+0  20368-3 0  9992
2 28353  70.9989 275.7212 0003221  59.4851 300.6589 14.14594858119923
CZ-4B R/B               
1 28415U 04035C   26048.55423825  .00007211  00000+0  25702-3 0  9995
2 28415  97.3528  83.0409 0033466  42.8003 317.5833 15.28678487176830
CZ-2C R/B               
1 28480U 04046B   26048.36138900  .00000109  00000+0  55981-4 0  9997
2 28480  98.1995 324.6086 0138634 214.6064 144.6037 14.26984754105609
